TEVEL2-9                
1 63237U 25052AD  26068.70229538  .00018694  00000+0  67240-3 0  9992
2 63237  97.4057 324.3929 0007990 124.2475 235.9522 15.28633834 54816
STARLINK-35479          
1 66326U 25253H   26068.42668908  .00033333  00000+0  12142-2 0  9991
2 66326  42.9949 214.0380 0000601 172.3535 187.7326 15.27610344 20204
